{
  "type": "FeatureCollection",
  "features": [
    {
      "type": "Feature",
      "properties": {
        "norad_id": 22490,
        "name": "SCD 1",
        "group": "resource",
        "lat": -14.286480203376,
        "lon": -95.75750845322975,
        "alt_km": 713.0871967464009,
        "timestamp": "2025-12-09T16:56:36.236414+00:00",
        "meta_object_name": "SCD 1",
        "meta_object_id": "1993-009B",
        "meta_epoch": "2025-12-09T04:23:05.110656",
        "meta_mean_motion": 14.45994752,
        "meta_eccentricity": 0.00417245,
        "meta_inclination": 24.9704,
        "meta_ra_of_asc_node": 300.645,
        "meta_arg_of_pericenter": 287.2095,
        "meta_mean_anomaly": 187.2931,
        "meta_ephemeris_type": 0,
        "meta_classification_type": "U",
        "meta_norad_cat_id": 22490,
        "meta_element_set_no": 999,
        "meta_rev_at_epoch": 73358,
        "meta_bstar": 0.00014848469,
        "meta_mean_motion_dot": 7.29e-06,
        "meta_mean_motion_ddot": 0,
        "tle_line1": "1 22490U 93009B   25343.18269804  .00000729  00000+0  14848-3 0  9998",
        "tle_line2": "2 22490  24.9704 300.6450 0041724 287.2095 187.2931 14.45994752733581"
      },
      "geometry": {
        "type": "Point",
        "coordinates": [
          -95.75750845322975,
          -14.286480203376
        ]
      }
    },
    {
      "type": "Feature",
      "properties": {
        "norad_id": 25397,
        "name": "TECHSAT 1B (GO-32)",
        "group": "resource",
        "lat": 75.47033037109782,
        "lon": -175.49457143001015,
        "alt_km": 802.2090922000089,
        "timestamp": "2025-12-09T16:56:36.236446+00:00",
        "meta_object_name": "TECHSAT 1B (GO-32)",
        "meta_object_id": "1998-043D",
        "meta_epoch": "2025-12-09T11:24:41.103072",
        "meta_mean_motion": 14.24375717,
        "meta_eccentricity": 0.0002137,
        "meta_inclination": 98.9917,
        "meta_ra_of_asc_node": 326.6122,
        "meta_arg_of_pericenter": 62.6184,
        "meta_mean_anomaly": 297.5211,
        "meta_ephemeris_type": 0,
        "meta_classification_type": "U",
        "meta_norad_cat_id": 25397,
        "meta_element_set_no": 999,
        "meta_rev_at_epoch": 42432,
        "meta_bstar": 0.00010363,
        "meta_mean_motion_dot": 1.93e-06,
        "meta_mean_motion_ddot": 0,
        "tle_line1": "1 25397U 98043D   25343.47547573  .00000193  00000+0  10363-3 0  9997",
        "tle_line2": "2 25397  98.9917 326.6122 0002137  62.6184 297.5211 14.24375717424326"
      },
      "geometry": {
        "type": "Point",
        "coordinates": [
          -175.49457143001015,
          75.47033037109782
        ]
      }
    },
    {
      "type": "Feature",
      "properties": {
        "norad_id": 25504,
        "name": "SCD 2",
        "group": "resource",
        "lat": 1.0697239350741836,
        "lon": 162.90357845774992,
        "alt_km": 736.7687986232922,
        "timestamp": "2025-12-09T16:56:36.236462+00:00",
        "meta_object_name": "SCD 2",
        "meta_object_id": "1998-060A",
        "meta_epoch": "2025-12-08T21:41:28.157568",
        "meta_mean_motion": 14.45419789,
        "meta_eccentricity": 0.0016589,
        "meta_inclination": 24.9931,
        "meta_ra_of_asc_node": 165.5501,
        "meta_arg_of_pericenter": 272.5598,
        "meta_mean_anomaly": 227.2256,
        "meta_ephemeris_type": 0,
        "meta_classification_type": "U",
        "meta_norad_cat_id": 25504,
        "meta_element_set_no": 999,
        "meta_rev_at_epoch": 43276,
        "meta_bstar": 0.00010877,
        "meta_mean_motion_dot": 5.72e-06,
        "meta_mean_motion_ddot": 0,
        "tle_line1": "1 25504U 98060A   25342.90379812  .00000572  00000+0  10877-3 0  9993",
        "tle_line2": "2 25504  24.9931 165.5501 0016589 272.5598 227.2256 14.45419789432766"
      },
      "geometry": {
        "type": "Point",
        "coordinates": [
          162.90357845774992,
          1.0697239350741836
        ]
      }
    },
    {
      "type": "Feature",
      "properties": {
        "norad_id": 25757,
        "name": "DLR-TUBSAT",
        "group": "resource",
        "lat": 14.37585559628804,
        "lon": -34.11155212916445,
        "alt_km": 728.5239777868092,
        "timestamp": "2025-12-09T16:56:36.236475+00:00",
        "meta_object_name": "DLR-TUBSAT",
        "meta_object_id": "1999-029B",
        "meta_epoch": "2025-12-09T11:54:57.936960",
        "meta_mean_motion": 14.52355882,
        "meta_eccentricity": 0.0013715,
        "meta_inclination": 98.656,
        "meta_ra_of_asc_node": 327.9102,
        "meta_arg_of_pericenter": 202.9117,
        "meta_mean_anomaly": 157.1467,
        "meta_ephemeris_type": 0,
        "meta_classification_type": "U",
        "meta_norad_cat_id": 25757,
        "meta_element_set_no": 999,
        "meta_rev_at_epoch": 40571,
        "meta_bstar": 8.2535e-05,
        "meta_mean_motion_dot": 2.88e-06,
        "meta_mean_motion_ddot": 0,
        "tle_line1": "1 25757U 99029B   25343.49650390  .00000288  00000+0  82535-4 0  9992",
        "tle_line2": "2 25757  98.6560 327.9102 0013715 202.9117 157.1467 14.52355882405716"
      },
      "geometry": {
        "type": "Point",
        "coordinates": [
          -34.11155212916445,
          14.37585559628804
        ]
      }
    },
    {
      "type": "Feature",
      "properties": {
        "norad_id": 25994,
        "name": "TERRA",
        "group": "resource",
        "lat": -15.164276909684988,
        "lon": 37.67935829900724,
        "alt_km": 696.0966826270233,
        "timestamp": "2025-12-09T16:56:36.236487+00:00",
        "meta_object_name": "TERRA",
        "meta_object_id": "1999-068A",
        "meta_epoch": "2025-12-09T12:29:08.334240",
        "meta_mean_motion": 14.60896727,
        "meta_eccentricity": 0.0003578,
        "meta_inclination": 97.9753,
        "meta_ra_of_asc_node": 35.3229,
        "meta_arg_of_pericenter": 100.6811,
        "meta_mean_anomaly": 347.8952,
        "meta_ephemeris_type": 0,
        "meta_classification_type": "U",
        "meta_norad_cat_id": 25994,
        "meta_element_set_no": 999,
        "meta_rev_at_epoch": 38191,
        "meta_bstar": 0.00018473,
        "meta_mean_motion_dot": 8.59e-06,
        "meta_mean_motion_ddot": 0,
        "tle_line1": "1 25994U 99068A   25343.52023535  .00000859  00000+0  18473-3 0  9990",
        "tle_line2": "2 25994  97.9753  35.3229 0003578 100.6811 347.8952 14.60896727381915"
      },
      "geometry": {
        "type": "Point",
        "coordinates": [
          37.67935829900724,
          -15.164276909684988
        ]
      }
    },
    {
      "type": "Feature",
      "properties": {
        "norad_id": 27004,
        "name": "MAROC-TUBSAT",
        "group": "resource",
        "lat": -60.291712641501434,
        "lon": -45.51810947033966,
        "alt_km": 993.1140941448384,
        "timestamp": "2025-12-09T16:56:36.236500+00:00",
        "meta_object_name": "MAROC-TUBSAT",
        "meta_object_id": "2001-056D",
        "meta_epoch": "2025-12-09T10:46:29.280000",
        "meta_mean_motion": 13.70252668,
        "meta_eccentricity": 0.001909,
        "meta_inclination": 99.7912,
        "meta_ra_of_asc_node": 151.8363,
        "meta_arg_of_pericenter": 268.8974,
        "meta_mean_anomaly": 145.7319,
        "meta_ephemeris_type": 0,
        "meta_classification_type": "U",
        "meta_norad_cat_id": 27004,
        "meta_element_set_no": 999,
        "meta_rev_at_epoch": 20020,
        "meta_bstar": 4.7568e-05,
        "meta_mean_motion_dot": -5e-08,
        "meta_mean_motion_ddot": 0,
        "tle_line1": "1 27004U 01056D   25343.44895000 -.00000005  00000+0  47568-4 0  9991",
        "tle_line2": "2 27004  99.7912 151.8363 0019090 268.8974 145.7319 13.70252668200206"
      },
      "geometry": {
        "type": "Point",
        "coordinates": [
          -45.51810947033966,
          -60.291712641501434
        ]
      }
    },
    {
      "type": "Feature",
      "properties": {
        "norad_id": 27424,
        "name": "AQUA",
        "group": "resource",
        "lat": -29.69705688476631,
        "lon": 119.69955434320836,
        "alt_km": 693.3738901214219,
        "timestamp": "2025-12-09T16:56:36.236512+00:00",
        "meta_object_name": "AQUA",
        "meta_object_id": "2002-022A",
        "meta_epoch": "2025-12-09T11:33:29.831328",
        "meta_mean_motion": 14.61797742,
        "meta_eccentricity": 9.67e-05,
        "meta_inclination": 98.4034,
        "meta_ra_of_asc_node": 304.3078,
        "meta_arg_of_pericenter": 114.1895,
        "meta_mean_anomaly": 355.6485,
        "meta_ephemeris_type": 0,
        "meta_classification_type": "U",
        "meta_norad_cat_id": 27424,
        "meta_element_set_no": 999,
        "meta_rev_at_epoch": 25555,
        "meta_bstar": 0.00040337,
        "meta_mean_motion_dot": 1.964e-05,
        "meta_mean_motion_ddot": 0,
        "tle_line1": "1 27424U 02022A   25343.48159527  .00001964  00000+0  40337-3 0  9992",
        "tle_line2": "2 27424  98.4034 304.3078 0000967 114.1895 355.6485 14.61797742255551"
      },
      "geometry": {
        "type": "Point",
        "coordinates": [
          119.69955434320836,
          -29.69705688476631
        ]
      }
    }
  ]
}